ION SCV-004             
1 50993U 22002K   26068.68892644  .00006538  00000+0  23198-3 0  9998
2 50993  97.2961 128.2294 0007216   1.6783 358.4480 15.29369331230088
STARLINK-31217          
1 59036U 24038P   26067.99010758  .00010281  00000+0  37774-3 0  9992
2 59036  43.0013 293.1531 0001104 271.0681  89.0045 15.28001451115832
